
STARLINK-6232           
1 57085U 23088AP  24337.02891546  .00000327  00000+0  39312-4 0  9993
2 57085  43.0040  88.4203 0001303 272.0327  88.0366 15.02537980 80923
STARLINK-6247           
1 57086U 23088AQ  24337.57072666  .00001513  00000+0  12708-3 0  9995
2 57086  43.0048  85.6084 0001437 283.7023  76.3660 15.02536368 81004
STARLINK-6251           
1 57087U 23088AR  24337.29149782  .00001082  00000+0  95130-4 0  9991
2 57087  42.9998  86.9469 0001010 274.6735  85.3992 15.02533651 80968
STARLINK-6257           
1 57088U 23088AS  24337.36796508 -.00000158  00000+0  33833-5 0  9991
2 57088  43.0023  86.6632 0001031 270.8004  89.2720 15.02540442 80978
STARLINK-6259           
1 57089U 23088AT  24337.61390567  .00005498  00000+0  42204-3 0  9996
2 57089  42.9997  85.0680 0001051 268.2091  91.8631 15.02510837 80102
STARLINK-6254           
1 57090U 23088AU  24337.02447665  .00000642  00000+0  62621-4 0  9997
2 57090  43.0063  88.3868 0001524 262.0921  97.9748 15.02535051 80014
STARLINK-6262           
1 57091U 23088AV  24337.61722127  .00001550  00000+0  12976-3 0  9998
2 57091  43.0008  85.0920 0001037 273.6384  86.4340 15.02541692 80106
STARLINK-6225           
1 57092U 23088AW  24337.61944113  .00001639  00000+0  13631-3 0  9997
2 57092  43.0017  85.1098 0001037 272.1202  87.9521 15.02542677 81019
STARLINK-6229           
1 57093U 23088AX  24337.61056204  .00001671  00000+0  13871-3 0  9995
2 57093  43.0030  85.0457 0000643 250.0096 110.0677 15.02541523 80110
STARLINK-6235           
1 57094U 23088AY  24337.60944860 -.00000826  00000+0 -46020-4 0  9995
2 57094  43.0023  85.0337 0001306 272.3102  87.7590 15.02553408 80100
STARLINK-6132           
1 57101U 23090A   24337.50044013  .00018120  00000+0  13527-2 0  9995
2 57101  43.0025 266.4502 0001238 250.5212 109.5496 15.02543978 80888
STARLINK-6111           
1 57102U 23090B   24337.49488378  .00007635  00000+0  57965-3 0  9994
2 57102  43.0047 266.4053 0001681 259.4331 100.6322 15.02538249 80881
STARLINK-6123           
1 57103U 23090C   24337.83334491  .01216298  00000+0  13442-1 0  9997
2 57103  43.0001 232.2879 0001884 255.3025 244.5641 15.59785512 80161
STARLINK-6130           
1 57104U 23090D   24337.49710990  .00002372  00000+0  19060-3 0  9991
2 57104  42.9989 266.4256 0001242 268.9470  91.1230 15.02535586 80886
STARLINK-6097           
1 57105U 23090E   24337.49377176  .00000874  00000+0  79714-4 0  9995
2 57105  42.9993 266.4019 0001049 288.0522  72.0206 15.02541909 80882
STARLINK-6118           
1 57106U 23090F   24337.08936014  .00000279  00000+0  35732-4 0  9994
2 57106  43.0029 268.5214 0001090 276.9147  83.1571 15.02535938 80827
STARLINK-6131           
1 57107U 23090G   24337.54138983  .00004873  00000+0  37564-3 0  9993
2 57107  43.0054 265.8903 0003633 255.5722 104.4718 15.02524744 79751
STARLINK-6099           
1 57108U 23090H   24337.15806687  .00000251  00000+0  33669-4 0  9993
2 57108  43.0023 268.1784 0000714 279.7573  80.3189 15.02526046 80832
STARLINK-6139           
1 57109U 23090J   24337.14807541 -.00001208  00000+0 -74337-4 0  9995
2 57109  43.0037 268.1030 0001204 266.4871  93.5834 15.02535079 80830
STARLINK-6134           
1 57110U 23090K   24337.49155882  .00001380  00000+0  11724-3 0  9998
2 57110  43.0043 266.3789 0001229 277.0227  83.0476 15.02536520 80883
STARLINK-6140           
1 57111U 23090L   24337.53473491  .00000591  00000+0  58834-4 0  9990
2 57111  43.0066 265.8421 0001910 260.8823  99.1804 15.02542631 79752
STARLINK-6141           
1 57112U 23090M   24337.21898925  .00001021  00000+0  90642-4 0  9991
2 57112  43.0037 267.7721 0001365 266.8312  93.2374 15.02534844 80844
STARLINK-6142           
1 57113U 23090N   24337.54028544 -.00005833  00000+0 -41692-3 0  9997
2 57113  43.0035 265.8864 0001552 268.9617  91.1047 15.02546481 79751
STARLINK-6125           
1 57114U 23090P   24337.53695026 -.00000122  00000+0  60028-5 0  9993
2 57114  43.0035 265.8606 0001020 275.1428  84.9298 15.02534407 79759
STARLINK-6085           
1 57115U 23090Q   24337.53139600 -.00002548  00000+0 -17356-3 0  9994
2 57115  43.0035 265.8198 0001112 272.5039  87.5676 15.02551505 79754
STARLINK-6129           
1 57116U 23090R   24337.21122037 -.00000308  00000+0 -77386-5 0  9999
2 57116  43.0014 267.7161 0001229 247.9821 112.0890 15.02538737 80843
STARLINK-6148           
1 57117U 23090S   24337.52806543  .00000908  00000+0  82246-4 0  9999
2 57117  42.9990 265.7897 0001049 271.5246  88.5476 15.02534346 79750
STARLINK-6151           
1 57118U 23090T   24337.53361916  .00000239  00000+0  32760-4 0  9994
2 57118  43.0049 265.8334 0001593 260.3189  99.7473 15.02535701 79758
STARLINK-6150           
1 57119U 23090U   24337.19123087  .00002225  00000+0  17972-3 0  9996
2 57119  42.9985 267.5639 0000966 267.4282  92.6450 15.02541904 80849
STARLINK-6147           
1 57120U 23090V   24337.53028807  .00000100  00000+0  22464-4 0  9993
2 57120  43.0028 265.8076 0000952 274.8152  85.2581 15.02535708 79756
STARLINK-6152           
1 57121U 23090W   24337.51475399 -.00001462  00000+0 -93155-4 0  9993
2 57121  43.0083 265.6914 0000700 315.8960  44.1827 15.02537552 79757
STARLINK-6149           
1 57122U 23090X   24337.52030770 -.00000817  00000+0 -45425-4 0  9995
2 57122  43.0036 265.7317 0000876 283.5083  76.5662 15.02527934 79754
STARLINK-6154           
1 57123U 23090Y   24337.24551084 -.00000534  00000+0 -24487-4 0  9992
2 57123  43.0025 267.1082 0001411 274.7533  85.3149 15.02533163 80667
STARLINK-6146           
1 57124U 23090Z   24337.11921408  .00000033  00000+0  17520-4 0  9992
2 57124  43.0017 267.8812 0000963 279.4128  80.6605 15.02537841 80831
STARLINK-6100           
1 57125U 23090AA  24337.49736413  .00001469  00000+0  12377-3 0  9992
2 57125  43.0024 253.4012 0000980 274.0205  86.0526 15.02532822 80846
STARLINK-6167           
1 57126U 23090AB  24337.25105911  .00000868  00000+0  79301-4 0  9993
2 57126  43.0029 267.1502 0001184 284.1603  75.9107 15.02535635 80857
STARLINK-6165           
1 57127U 23090AC  24337.50697818  .00001937  00000+0  15845-3 0  9994
2 57127  43.0063 265.6304 0002039 272.6922  87.3687 15.02528593 80704
STARLINK-6163           
1 57128U 23090AD  24337.18124985  .00001668  00000+0  13854-3 0  9998
2 57128  43.0032 267.4849 0000935 282.7455  77.3283 15.02536214 80655
STARLINK-6170           
1 57129U 23090AE  24337.04644937  .00000998  00000+0  88950-4 0  9993
2 57129  43.0070 256.0368 0000994 275.4024  84.6705 15.02536085 80773
STARLINK-6172           
1 57130U 23090AF  24337.50807569  .00014916  00000+0  11190-2 0  9993
2 57130  43.0068 265.6386 0001408 262.5131  97.5551 15.02464067 79753
STARLINK-6162           
1 57131U 23090AG  24337.50735587  .00000650  00000+0  63197-4 0  9990
2 57131  43.0045 253.4754 0001255 261.7321  98.3379 15.02531835 79895
STARLINK-6128           
1 57132U 23090AH  24337.50142498  .00001758  00000+0  14514-3 0  9992
2 57132  43.0035 265.5891 0001506 270.9872  89.0798 15.02539926 80706
STARLINK-6143           
1 57133U 23090AJ  24337.49403153  .00002195  00000+0  17744-3 0  9993
2 57133  43.0031 253.3767 0001078 277.9085  82.1635 15.02547252 80847
STARLINK-6133           
1 57134U 23090AK  24337.50846449  .00000708  00000+0  67461-4 0  9995
2 57134  43.0024 253.4837 0001012 281.3766  78.6962 15.02531842 80843
STARLINK-6127           
1 57135U 23090AL  24337.48404929 -.00000068  00000+0  10006-4 0  9999
2 57135  43.0029 253.2996 0000862 278.7761  81.2984 15.02533019 80842
STARLINK-6112           
1 57136U 23090AM  24337.50513815  .00000593  00000+0  58992-4 0  9996
2 57136  43.0034 253.4599 0000855 280.5786  79.4960 15.02530397 80861
STARLINK-5347           
1 57137U 23090AN  24337.49181366  .00002910  00000+0  23046-3 0  9993
2 57137  43.0078 253.3580 0001395 270.9680  89.1002 15.02527450 80844
STARLINK-5336           
1 57138U 23090AP  24337.50402545  .00000903  00000+0  81905-4 0  9990
2 57138  42.9996 253.4509 0000938 274.8800  85.1935 15.02530319 79895
STARLINK-5355           
1 57139U 23090AQ  24337.48737662  .00001095  00000+0  96099-4 0  9992
2 57139  43.0036 253.3235 0000984 276.7324  83.3406 15.02531083 80840
STARLINK-5357           
1 57141U 23090AS  24337.48182474  .00009669  00000+0  73085-3 0  9994
2 57141  43.0018 253.2816 0000528 297.9807  62.0982 15.02482678 79893
STARLINK-5361           
1 57142U 23090AT  24337.47739017  .00000358  00000+0  41593-4 0  9991
2 57142  43.0026 253.2495 0000813 282.0345  78.0406 15.02533386 80843
STARLINK-5358           
1 57143U 23090AU  24337.07518542  .00000679  00000+0  65340-4 0  9998
2 57143  43.0027 255.3950 0000863 258.5313 101.5433 15.02539712 80786
STARLINK-5150           
1 57144U 23090AV  24337.48515572  .00001031  00000+0  91414-4 0  9998
2 57144  43.0027 253.3053 0001263 265.0948  94.9750 15.02536398 80842
STARLINK-5768           
1 57145U 23090AW  24337.46518079  .00000243  00000+0  33032-4 0  9998
2 57145  43.0030 253.1571 0000520 254.8637 105.2148 15.02535798 80846
STARLINK-5791           
1 57146U 23090AX  24337.47183069  .00001140  00000+0  99459-4 0  9999
2 57146  43.0036 253.2035 0001979 259.0690 100.9929 15.02535123 80845
STARLINK-5765           
1 57147U 23090AY  24337.46073631 -.00000543  00000+0 -25109-4 0  9991
2 57147  42.9999 253.1193 0001115 271.4932  88.5783 15.02534574 81035
STARLINK-5788           
1 57148U 23090AZ  24337.45407420  .00002568  00000+0  20505-3 0  9999
2 57148  42.9990 253.0733 0000785 273.8442  86.2310 15.02540042 80846
STARLINK-5778           
1 57149U 23090BA  24337.40808710 -.00000630  00000+0 -31573-4 0  9990
2 57149  43.0040 227.5389 0001283 246.9412 113.1295 15.02534406 81323
